CONNECTA IOT-14         
1 67401U 26004AQ  26068.94775677  .00004975  00000+0  24848-3 0  9997
2 67401  97.4512  69.4576 0008933 336.1510  23.9308 15.17901608  8705
CONNECTA IOT-15         
1 67402U 26004AR  26068.94515343  .00004685  00000+0  24313-3 0  9995
2 67402  97.4573  69.3558 0001866 342.2914  17.8254 15.16609971  8682
