[{"OBJECT_NAME":"CONNECTA IOT-14","OBJECT_ID":"2026-004AQ","EPOCH":"2026-03-09T22:44:46.185792","MEAN_MOTION":15.17901608,"ECCENTRICITY":0.00089335,"INCLINATION":97.4512,"RA_OF_ASC_NODE":69.4576,"ARG_OF_PERICENTER":336.151,"MEAN_ANOMALY":23.9308,"EPHEMERIS_TYPE":0,"CLASSIFICATION_TYPE":"U","NORAD_CAT_ID":67401,"ELEMENT_SET_NO":999,"REV_AT_EPOCH":870,"BSTAR":0.00024848153,"MEAN_MOTION_DOT":4.975e-5,"MEAN_MOTION_DDOT":0},{"OBJECT_NAME":"CONNECTA IOT-15","OBJECT_ID":"2026-004AR","EPOCH":"2026-03-09T22:41:01.256352","MEAN_MOTION":15.16609971,"ECCENTRICITY":0.00018664,"INCLINATION":97.4573,"RA_OF_ASC_NODE":69.3558,"ARG_OF_PERICENTER":342.2914,"MEAN_ANOMALY":17.8254,"EPHEMERIS_TYPE":0,"CLASSIFICATION_TYPE":"U","NORAD_CAT_ID":67402,"ELEMENT_SET_NO":999,"REV_AT_EPOCH":868,"BSTAR":0.00024313202,"MEAN_MOTION_DOT":4.685e-5,"MEAN_MOTION_DDOT":0}]
